[Satellite]
VERSION=1.1
NAME=CZ-6A DEB
NICKNAME=CZ-6A DEB
TLE1=1 54332U 22151CB  22341.99227984  .00001549  00000+0  79016-3 0  9994
TLE2=2 54332  98.8004 346.7281 0043321  79.2225 281.3822 14.16655440  3127
STATUS=0
